{
  "norad_id": 64000,
  "name": "STARLINK-34152",
  "history": [
    {
      "epoch": "2026-03-28T18:22:17.176512Z",
      "apogee_km": 483.9899105539316,
      "perigee_km": 481.954631099833,
      "latitude_deg": -1.0443412950144079e-05,
      "longitude_deg": 148.39509604401977,
      "height_km": 482.8817316680735,
      "semi_major_axis_km": 6861.109270826882,
      "eccentricity": 0.00014832,
      "inclination_deg": 43.0024,
      "raan_deg": 250.1479,
      "arg_perigee_deg": 262.5213,
      "mean_anomaly_deg": 97.547,
      "mean_motion_rev_day": 15.27605657
    },
    {
      "epoch": "2026-03-29T03:47:14.314848Z",
      "apogee_km": 483.5600595792839,
      "perigee_km": 482.447182570545,
      "latitude_deg": -3.5486797619581448e-06,
      "longitude_deg": 4.555630871582558,
      "height_km": 482.23871392404004,
      "semi_major_axis_km": 6861.140621074914,
      "eccentricity": 8.11e-05,
      "inclination_deg": 42.9954,
      "raan_deg": 247.9332,
      "arg_perigee_deg": 14.1001,
      "mean_anomaly_deg": 345.9873,
      "mean_motion_rev_day": 15.27595187
    },
    {
      "epoch": "2026-03-30T03:19:34.854240Z",
      "apogee_km": 484.35333825886664,
      "perigee_km": 481.6733729299722,
      "latitude_deg": -1.435661694931199e-05,
      "longitude_deg": 4.964725167442671,
      "height_km": 482.44956327552035,
      "semi_major_axis_km": 6861.150355594419,
      "eccentricity": 0.0001953,
      "inclination_deg": 43.0051,
      "raan_deg": 242.3946,
      "arg_perigee_deg": 284.7649,
      "mean_anomaly_deg": 75.2986,
      "mean_motion_rev_day": 15.27591936
    }
  ]
}